[
   {
      "Id":"edf",
      "Name":"Florian Eder",
      "PinCode":"5950"
   },
   {
      "Id":"jal",
      "Name":"Lance Janssen",
      "PinCode":"4694"
   },
   {
      "Id":"kof",
      "Name":"Fabian Koder",
      "PinCode":"9982"
   },
   {
      "Id":"blg",
      "Name":"Günter Blatnig",
      "PinCode":"6554"
   },
   {
      "Id":"das",
      "Name":"Stefanie Dabringer",
      "PinCode":"9305"
   },
   {
      "Id":"edk",
      "Name":"Karl-Heinz Eder",
      "PinCode":"5351"
   },
   {
      "Id":"gaw",
      "Name":"Wolfgang Gallent",
      "PinCode":"9668"
   },
   {
      "Id":"hui",
      "Name":"Reinhard Huszar",
      "PinCode":"5794"
   },
   {
      "Id":"kaa",
      "Name":"Achim Karasek",
      "PinCode":"5521"
   },
   {
      "Id":"lin",
      "Name":"Nicole Linder",
      "PinCode":"6548"
   },
   {
      "Id":"muh",
      "Name":"Heidrun Müller-Stegmüller",
      "PinCode":"4734"
   },
   {
      "Id":"obg",
      "Name":"Gernot Oberlercher",
      "PinCode":"2637"
   },
   {
      "Id":"REL",
      "Name":"Ludwig Reichmann   ",
      "PinCode":"4386"
   },
   {
      "Id":"PEW",
      "Name":"Walter Petritsch",
      "PinCode":"5121"
   }
]